[{"OBJECT_NAME":"STARLINK-31882","OBJECT_ID":"2024-097W","EPOCH":"2026-03-09T12:50:52.612224","MEAN_MOTION":15.27575603,"ECCENTRICITY":8.526e-5,"INCLINATION":43.003,"RA_OF_ASC_NODE":268.257,"ARG_OF_PERICENTER":237.0873,"MEAN_ANOMALY":122.9896,"EPHEMERIS_TYPE":0,"CLASSIFICATION_TYPE":"U","NORAD_CAT_ID":59855,"ELEMENT_SET_NO":999,"REV_AT_EPOCH":10197,"BSTAR":-1.635505e-6,"MEAN_MOTION_DOT":-3.07e-6,"MEAN_MOTION_DDOT":0},{"OBJECT_NAME":"GEOSCAN 1 (RS92S1)","OBJECT_ID":"2025-155E","EPOCH":"2026-03-09T22:44:05.846496","MEAN_MOTION":15.28410635,"ECCENTRICITY":0.00087099,"INCLINATION":97.4463,"RA_OF_ASC_NODE":37.403,"ARG_OF_PERICENTER":153.6429,"MEAN_ANOMALY":206.5255,"EPHEMERIS_TYPE":0,"CLASSIFICATION_TYPE":"U","NORAD_CAT_ID":64880,"ELEMENT_SET_NO":999,"REV_AT_EPOCH":6560,"BSTAR":0.00054367431,"MEAN_MOTION_DOT":0.00014993,"MEAN_MOTION_DDOT":0}]
